TEVEL2-8                
1 63239U 25052AF  26068.66815443  .00019130  00000+0  69304-3 0  9994
2 63239  97.4055 324.2923 0008031 124.9191 235.2804 15.28392908 54807
STARLINK-35355          
1 66448U 25259AC  26068.92802628  .00029619  00000+0  10805-2 0  9992
2 66448  43.0007 273.3462 0001573 281.8072  78.2603 15.27610332 19528
